OBJECT_NAME,OBJECT_ID,EPOCH,MEAN_MOTION,ECCENTRICITY,INCLINATION,RA_OF_ASC_NODE,ARG_OF_PERICENTER,MEAN_ANOMALY,EPHEMERIS_TYPE,CLASSIFICATION_TYPE,NORAD_CAT_ID,ELEMENT_SET_NO,REV_AT_EPOCH,BSTAR,MEAN_MOTION_DOT,MEAN_MOTION_DDOT
SAR-LUPE 2,2007-030A,2026-06-30T23:00:19.006848,15.52156374,.00026904,98.1059,288.1203,205.9489,154.1627,0,U,31797,999,5907,.24397285E-3,.14656E-3,0
SAPPHIRE,2013-009C,2026-06-30T23:10:10.999776,14.35244324,.00106924,98.4266,1.0943,202.2711,157.8012,0,U,39088,999,69855,.5016273E-4,.101E-5,0
PRAETORIAN SDA_602,2025-203A,2026-06-30T21:40:21.779904,13.83886682,.00065628,81.3031,358.0658,151.4676,208.6841,0,U,65565,999,4059,.70200528E-4,.9E-6,0
PRAETORIAN SDA_603,2025-203B,2026-06-30T11:57:26.748000,13.83906372,.00100426,81.3037,358.3631,152.0009,208.1690,0,U,65566,999,4054,.92887694E-4,.115E-5,0
PRAETORIAN SDA_604,2025-203C,2026-06-30T23:02:45.366720,13.83048992,.00060227,81.3053,358.3684,154.8633,205.2818,0,U,65567,999,4058,.49983295E-4,.67E-6,0
PRAETORIAN SDA_605,2025-203D,2026-06-30T11:42:25.792128,13.83435063,.00087804,81.3019,358.4552,147.9648,212.2044,0,U,65568,999,4053,.1499254E-4,.28E-6,0
PRAETORIAN SDA_606,2025-203E,2026-06-30T21:45:34.789824,13.83198967,.00066816,81.3055,358.2998,149.8038,210.3505,0,U,65569,999,4058,.30748655E-4,.46E-6,0
PRAETORIAN SDA_607,2025-203F,2026-06-30T11:17:07.441728,13.84286380,.00094194,81.3042,358.3409,152.1377,208.0286,0,U,65570,999,4054,.19374515E-3,.228E-5,0
PRAETORIAN SDA_608,2025-203G,2026-06-30T22:59:51.010656,13.83818250,.00065372,81.3008,358.0568,154.1283,206.0202,0,U,65571,999,4059,.63994617E-4,.83E-6,0
PRAETORIAN SDA_609,2025-203H,2026-06-30T23:01:18.125184,13.84210315,.00074171,81.3050,358.0365,148.9775,211.1821,0,U,65572,999,4060,.9942201E-4,.123E-5,0
PRAETORIAN SDA_610,2025-203J,2026-06-30T12:06:38.951136,13.83768908,.00072614,81.3008,358.4360,154.7630,205.3882,0,U,65573,999,4053,.50025112E-4,.67E-6,0
PRAETORIAN SDA_611,2025-203K,2026-06-30T22:39:05.068224,13.83310770,.00060248,81.3011,358.2044,157.6672,202.4748,0,U,65574,999,4058,.15343113E-3,.18E-5,0
PRAETORIAN SDA_612,2025-203L,2026-06-30T21:59:24.458784,13.85040904,.00098434,81.3033,357.7829,150.1912,209.9808,0,U,65575,999,4061,.13603018E-3,.166E-5,0
PRAETORIAN SDA_613,2025-203M,2026-06-30T21:12:23.364864,13.82766358,.0006298,81.3000,358.2680,148.1650,211.9888,0,U,65576,999,4057,.42234818E-4,.58E-6,0
PRAETORIAN SDA_614,2025-203N,2026-06-30T21:47:33.321120,13.84778244,.00077568,81.3014,357.8716,147.6221,212.5413,0,U,65577,999,4061,.21851992E-4,.37E-6,0
PRAETORIAN SDA_615,2025-203P,2026-06-30T23:03:12.649248,13.84437436,.00096022,81.3026,357.7956,148.8190,211.3538,0,U,65578,999,4061,.11522356E-3,.141E-5,0
PRAETORIAN SDA_616,2025-203Q,2026-06-30T22:38:32.643168,13.83269676,.00059637,81.3066,358.3597,155.8507,204.2930,0,U,65579,999,4058,.19417321E-3,.225E-5,0
PRAETORIAN SDA_617,2025-203R,2026-06-30T23:11:20.665824,13.83151108,.00080046,81.3038,358.1683,147.8414,212.3232,0,U,65580,999,4059,.47476113E-4,.64E-6,0
PRAETORIAN SDA_618,2025-203S,2026-06-30T11:48:31.252896,13.84224408,.00103241,81.3019,358.1569,153.5155,206.6532,0,U,65581,999,4055,.10636538E-3,.131E-5,0
PRAETORIAN SDA_619,2025-203T,2026-06-30T21:30:58.139136,13.83807198,.00087594,81.3045,358.0981,149.3572,210.8098,0,U,65582,999,4122,.1713087E-3,.202E-5,0
PRAETORIAN SDA_620,2025-203U,2026-06-30T11:49:09.316416,13.83619602,.00082391,81.3035,358.4947,146.0262,214.1424,0,U,65583,999,4053,.17063937E-3,.2E-5,0
PRAETORIAN SDA_621,2025-203V,2026-06-30T21:33:34.911936,13.83802589,.00080714,81.3021,358.0318,143.1441,217.0272,0,U,65584,999,4059,.4489965E-4,.62E-6,0
PRAETORIAN SDA_601,2025-203W,2026-06-30T22:44:29.533056,13.83169220,.00060181,81.3041,358.2984,158.6343,201.5066,0,U,65585,999,4058,.10243687E-3,.124E-5,0
VICTUS HAZE PUMA,2026-142A,2026-06-30T23:13:24.710304,15.20752300,.00209462,97.4473,79.4332,277.2578,82.6277,0,U,69646,999,176,.17877152E-3,.3887E-4,0
